     2.100          NAVIGATION                              RINEX VERSION / TYPE
fic2rin                                 05/07/2009 02:00:58 PGM / RUN BY / DATE
                                                            END OF HEADER
11 09  5  6 16  0  0.0 -.155484303832D-05 -.136424205266D-11  .000000000000D+00
     .980000000000D+02  .742812500000D+02  .597203447349D-08 -.285432424629D+00
     .393204391003D-05  .931499269791D-02  .111814588308D-04  .515369174194D+04
     .316800000000D+06  .651925802231D-07 -.232651316095D+00  .115483999252D-06
     .889944711552D+00  .128250000000D+03  .694403162302D+00 -.882322466558D-08
     .167864135072D-10  .100000000000D+01  .153000000000D+04  .000000000000D+00
     .340000000000D+01  .000000000000D+00 -.116415321827D-07  .980000000000D+02
     .309606000000D+06  .400000000000D+01
12 09  5  6 16  0  0.0 -.284840352833D-03  .511590769747D-11  .000000000000D+00
     .920000000000D+02  .148750000000D+02  .469483841601D-08 -.542345366633D-01
     .732019543648D-06  .335934653413D-02  .504776835442D-05  .515365727425D+04
     .316800000000D+06  .335276126862D-07 -.211045758839D+01 -.894069671631D-07
     .966518277926D+00  .287156250000D+03 -.728584527030D+00 -.822534261854D-08
     .182507602174D-09  .100000000000D+01  .153000000000D+04  .000000000000D+00
     .240000000000D+01  .000000000000D+00 -.116415321827D-07  .920000000000D+02
     .309606000000D+06  .400000000000D+01
13 09  5  6 16  0  0.0  .296404585242D-03  .102318153949D-11  .000000000000D+00
     .730000000000D+02 -.118406250000D+03  .373301263782D-08  .225547081908D+01
    -.622496008873D-05  .410322227981D-02  .775419175625D-05  .515371852493D+04
     .316800000000D+06  .242143869400D-07  .213098287325D+01 -.763684511185D-07
     .994827000869D+00  .241218750000D+03  .155160790329D+01 -.774282251964D-08
    -.523593238331D-09  .100000000000D+01  .153000000000D+04  .000000000000D+00
     .240000000000D+01  .000000000000D+00 -.111758708954D-07  .730000000000D+02
     .309606000000D+06  .400000000000D+01
14 09  5  6 16  0  0.0 -.114833936095D-03  .591171556152D-11  .000000000000D+00
     .500000000000D+02 -.100968750000D+03  .386658963041D-08  .204428554804D+01
    -.541843473911D-05  .438622524962D-02  .742077827454D-05  .515360266495D+04
     .316800000000D+06 -.689178705215D-07  .211160051216D+01 -.800937414169D-07
     .988335885597D+00  .252343750000D+03 -.214230379647D+01 -.778818155188D-08
    -.429303596504D-09  .100000000000D+01  .153000000000D+04  .000000000000D+00
     .240000000000D+01  .000000000000D+00 -.931322574615D-08  .500000000000D+02
     .309606000000D+06  .400000000000D+01
15 09  5  6 16  0  0.0 -.288887415081D-03 -.386535248253D-11  .000000000000D+00
     .800000000000D+01 -.108343750000D+03  .477948479901D-08  .224565240197D+01
    -.535696744919D-05  .142817711458D-02  .617653131485D-05  .515361183357D+04
     .316800000000D+06  .447034835815D-07  .205977089578D+01  .204890966415D-07
     .956348931635D+00  .258531250000D+03 -.481443302869D+00 -.827534470132D-08
    -.417517391275D-09  .100000000000D+01  .153000000000D+04  .000000000000D+00
     .240000000000D+01  .000000000000D+00 -.977888703346D-08  .800000000000D+01
     .309606000000D+06  .400000000000D+01
16 09  5  6 16  0  0.0  .533754937351D-04 -.329691829393D-11  .000000000000D+00
     .560000000000D+02  .139375000000D+02  .465269380337D-08 -.254955446578D+01
     .843778252602D-06  .532795907930D-02  .511668622494D-05  .515353074837D+04
     .316800000000D+06 -.372529029846D-07 -.209353444964D+01  .298023223877D-07
     .967971836255D+00  .287281250000D+03 -.372353255928D+00 -.815141096756D-08
     .238581366443D-09  .100000000000D+01  .153000000000D+04  .000000000000D+00
     .240000000000D+01  .000000000000D+00 -.977888703346D-08  .560000000000D+02
     .309606000000D+06  .400000000000D+01
17 09  5  6 16  0  0.0  .576772727072D-04  .193267624127D-11  .000000000000D+00
     .680000000000D+02 -.390312500000D+02  .451590239118D-08  .263409542780D+01
    -.181794166565D-05  .446905486751D-02  .956095755100D-05  .515367499352D+04
     .316800000000D+06 -.465661287308D-07 -.105087432417D+01 -.117346644402D-06
     .959484961326D+00  .191718750000D+03 -.265263349498D+01 -.796426031484D-08
    -.420017495415D-09  .100000000000D+01  .153000000000D+04  .000000000000D+00
     .240000000000D+01  .000000000000D+00 -.102445483208D-07  .680000000000D+02
     .309606000000D+06  .400000000000D+01
19 09  5  6 16  0  0.0  .264393165708D-04 -.102318153949D-11  .000000000000D+00
     .370000000000D+02 -.288750000000D+02  .457126183998D-08  .200927682267D+01
    -.157393515110D-05  .554049562197D-02  .952184200287D-05  .515360153580D+04
     .316800000000D+06  .100582838058D-06 -.994742629995D+00  .707805156708D-07
     .957247134077D+00  .192343750000D+03 -.370193905456D+00 -.800247619240D-08
    -.501449458811D-09  .100000000000D+01  .153000000000D+04  .000000000000D+00
     .240000000000D+01  .000000000000D+00 -.144354999065D-07  .370000000000D+02
     .309606000000D+06  .400000000000D+01
20 09  5  6 16  0  0.0  .833747908473D-04 -.102318153949D-11  .000000000000D+00
     .750000000000D+02  .493750000000D+02  .546737059507D-08 -.221977463048D+01
     .262819230556D-05  .401654571760D-02  .168383121490D-05  .515361692238D+04
     .316800000000D+06  .260770320892D-07  .100229027933D+01  .353902578354D-07
     .942255606031D+00  .338781250000D+03  .135264026280D+01 -.875893627342D-08
     .211794536378D-09  .100000000000D+01  .153000000000D+04  .000000000000D+00
     .240000000000D+01  .000000000000D+00 -.651925802231D-08  .750000000000D+02
     .309606000000D+06  .400000000000D+01
21 09  5  6 16  0  0.0  .154389999807D-04 -.204636307899D-11  .000000000000D+00
     .280000000000D+02  .866875000000D+02  .494699177635D-08 -.107709759156D+01
     .459887087345D-05  .151514110621D-01  .933185219765D-05  .515362535858D+04
     .316800000000D+06  .320374965668D-06 -.205056788295D-02 -.130385160446D-07
     .934648260857D+00  .181218750000D+03 -.261166546310D+01 -.823855745470D-08
     .265725354242D-09  .100000000000D+01  .153000000000D+04  .000000000000D+00
     .240000000000D+01  .000000000000D+00 -.121071934700D-07  .280000000000D+02
     .309606000000D+06  .400000000000D+01
22 09  5  6 16  0  0.0  .200185924768D-03 -.102318153949D-11  .000000000000D+00
     .290000000000D+02  .373125000000D+02  .541701135455D-08  .286900990742D+01
     .188685953617D-05  .493083416950D-02  .166334211826D-05  .515365933037D+04
     .316800000000D+06  .726431608200D-07  .106186914832D+01 -.126659870148D-06
     .940238364885D+00  .336687500000D+03 -.187088840334D+01 -.867536136362D-08
     .596453416107D-10  .100000000000D+01  .153000000000D+04  .000000000000D+00
     .240000000000D+01  .000000000000D+00 -.176951289177D-07  .290000000000D+02
     .309606000000D+06  .400000000000D+01
23 09  5  6 16  0  0.0  .389873050153D-03  .227373675443D-12  .000000000000D+00
     .810000000000D+02 -.111000000000D+03  .437803950578D-08  .146818668510D+01
    -.555068254471D-05  .602571992204D-02  .702217221260D-05  .515361987114D+04
     .316800000000D+06  .968575477600D-07  .207944824406D+01  .223517417908D-07
     .970317154336D+00  .244593750000D+03  .287699247792D+01 -.814533928608D-08
    -.554308803472D-09  .100000000000D+01  .153000000000D+04  .000000000000D+00
     .240000000000D+01  .000000000000D+00 -.200234353542D-07  .810000000000D+02
     .309606000000D+06  .400000000000D+01
24 09  5  6 16  0  0.0  .186777208000D-03  .295585778076D-11  .000000000000D+00
     .134000000000D+03  .933125000000D+02  .452876006961D-08 -.244231306892D+01
     .498071312904D-05  .674746884033D-02  .103209167719D-04  .515368611717D+04
     .316800000000D+06 -.782310962677D-07  .297074086785D-01  .104308128357D-06
     .951286031099D+00  .176062500000D+03 -.645951915313D+00 -.791890128260D-08
     .226438003480D-09  .100000000000D+01  .153000000000D+04  .000000000000D+00
     .240000000000D+01  .000000000000D+00 -.139698386192D-08  .134000000000D+03
     .309606000000D+06  .400000000000D+01
25 09  5  6 16  0  0.0  .398196745664D-03  .200088834390D-10  .000000000000D+00
     .610000000000D+02 -.196875000000D+02  .398338020949D-08 -.194621689330D+01
    -.112131237984D-05  .114958961494D-01  .125616788864D-04  .515365798950D+04
     .316800000000D+06 -.428408384323D-07  .302669789985D+01  .327825546265D-06
     .969741237135D+00  .140812500000D+03 -.120762487723D+01 -.767674833881D-08
     .168578450541D-09  .100000000000D+01  .153000000000D+04  .000000000000D+00
     .240000000000D+01  .000000000000D+00 -.745058059692D-08  .610000000000D+02
     .309606000000D+06  .400000000000D+01
26 09  5  6 16  0  0.0  .599026679993D-04  .147792889038D-11  .000000000000D+00
     .840000000000D+02 -.982500000000D+02  .396373653411D-08  .360029609158D+00
    -.479072332382D-05  .204298974713D-01  .719726085663D-05  .515487675476D+04
     .316800000000D+06 -.240281224251D-06  .212864634584D+01  .199303030968D-06
     .992672343439D+00  .259375000000D+03  .100141955634D+01 -.811426656320D-08
    -.522878922863D-09  .100000000000D+01  .153000000000D+04  .000000000000D+00
     .240000000000D+01  .000000000000D+00 -.651925802231D-08  .840000000000D+02
     .309606000000D+06  .400000000000D+01
27 09  5  6 16  0  0.0  .468320213258D-04  .318323145621D-11  .000000000000D+00
     .156000000000D+03 -.349062500000D+02  .387909015110D-08  .241984542238D+01
    -.175088644028D-05  .208439765265D-01  .111032277346D-04  .515509693909D+04
     .316800000000D+06  .266358256340D-06  .306297051768D+01 -.162050127983D-06
     .974453423542D+00  .161718750000D+03 -.161181089995D+01 -.729923261377D-08
     .112861844006D-09  .100000000000D+01  .153000000000D+04  .000000000000D+00
     .340000000000D+01  .000000000000D+00 -.419095158577D-08  .156000000000D+03
     .309606000000D+06  .400000000000D+01
